C/2017 U5 (PANSTARRS),e,18.9701,163.0855,262.0506,16.87498,0.0142180,0.74386020,13.8851,08/21.0/2020,2000,g 12.0,4.0
# From MPC118841
C/2017 U7,h,09/13.9172/2019,142.6019,276.2443,326.2737,1.002116,6.421263,2000,8.3,2.0
# From MPC114600
C/2017 W2 (Leonard),e,98.1991,312.8398,169.0800,13.67548,0.0194890,0.71085672,19.9471,08/21.0/2020,2000,g 11.0,4.0
# From MPC114601
P/2017 W3 (Gibbs),e,18.1756,210.3611,327.6710,7.843880,0.0448650,0.50821215,40.5367,08/21.0/2020,2000,g 10.5,4.0
# From MPC115883
C/2017 X1 (PANSTARRS),e,31.3035,251.1298,283.2858,31.42096,0.0055960,0.85142440,4.4629,08/21.0/2020,2000,g 10.0,4.0
# From MPC117069
C/2017 Y1 (PANSTARRS),e,55.2664,307.5302,134.3404,1898,0.0000119,0.99804305,0.0000,08/31.1358/2017,2000,g 11.5,4.0
# From MPC118841
C/2017 Y2 (PANSTARRS),h,11/04.5417/2020,128.4223,65.9854,147.8570,1.001008,4.632123,2000,15.0,4.0
# From MPC111770
P/2017 Y3 (Leonard),e,27.5649,153.8539,67.5886,9.850473,0.0318800,0.87026442,29.3961,08/21.0/2020,2000,g 16.5,4.0
# From MPC114601
C/2018 A1 (PANSTARRS),e,53.5996,336.6435,96.2964,25.11185,0.0078322,0.90377672,8.1117,08/21.0/2020,2000,g 12.5,4.0
# From MPC119996
C/2018 A3 (ATLAS),e,139.5488,194.2936,86.4025,484.8187,0.0000923,0.99324327,0.0000,01/12.7065/2019,2000,g  8.5,4.0
# From MPC114601
C/2018 A4 (PANSTARRS),e,3.1482,97.6338,356.0648,12.21296,0.0230926,0.80340007,19.0625,08/21.0/2020,2000,g 14.0,4.0
# From MPC109147
P/2018 A5 (PANSTARRS),e,23.5786,87.8286,359.5990,5.637167,0.0736398,0.52222775,78.2676,08/21.0/2020,2000,g 15.0,4.0
# From MPC119996
C/2018 A6 (Gibbs),e,76.9627,340.3812,264.5543,15.34066,0.0164036,0.80324138,6.6218,08/21.0/2020,2000,g  9.0,4.0
# From MPC118841
C/2018 B1 (Lemmon),h,03/29.7050/2018,162.4200,133.1909,68.3090,1.001404,5.115285,2000,9.0,4.0
# From MPC114601
P/2018 C1 (Lemmon-Read),e,5.1285,270.3922,235.5977,5.652230,0.0733456,0.53418997,66.4530,08/21.0/2020,2000,g 13.5,4.0
# From MPC114601
C/2018 C2 (Lemmon),h,06/01.8876/2018,34.4586,91.1408,134.1159,1.000918,1.957484,2000,13.0,4.0
# From MPEC 2020-AA5
C/2018 DO4 (Lemmon),e,160.4741,251.1317,175.9625,25.75588,0.0075403,0.90658321,2.7798,08/21.0/2020,2000,g 11.0,4.0
# From MPC114602
C/2018 E1 (ATLAS),e,72.5098,146.8578,299.4213,54.00449,0.0024835,0.94994071,2.1277,08/21.0/2020,2000,g 10.5,4.0
# From MPC114602
C/2018 E2 (Barros),e,97.7227,67.1990,277.4757,3878,0.0000041,0.99898892,0.0000,12/23.9750/2017,2000,g 10.5,4.0
# From MPC114602
C/2018 EN4 (NEOWISE),e,81.6130,136.1484,35.0092,18.26842,0.0126227,0.92065788,10.1702,08/21.0/2020,2000,g 15.0,4.0
# From MPC114602
C/2018 EF9 (Lemmon),e,84.6515,172.5709,72.6206,576.9483,0.0000711,0.99730085,0.0000,05/22.9549/2018,2000,g 18.0,2.0
# From MPC115883
C/2018 F1 (Grauer),e,46.0754,177.2763,71.6392,294.3578,0.0001952,0.98982917,0.0000,12/13.9357/2018,2000,g 11.5,4.0
# From MPC110084
C/2018 F3 (Johnson),p,08/15.2314/2017,105.5348,293.0113,2.483172,173.0311,2000,13.0,4.0
# From MPC119996
C/2018 F4 (PANSTARRS),h,12/04.1460/2019,78.0964,26.5111,263.2241,1.001468,3.440033,2000,11.9,2.0
# From MPC114602
P/2018 H2 (PANSTARRS),e,7.3880,68.4235,120.0075,4.395264,0.1069613,0.53988316,100.6744,08/21.0/2020,2000,g 16.6,2.0
# From MPC114602
C/2018 K1 (Weiland),e,164.1961,260.0248,325.0384,29.90277,0.0060275,0.93709812,5.2273,08/21.0/2020,2000,g 14.9,4.0
# From MPC118094
C/2018 KJ3 (Lemmon),e,136.7092,91.5960,217.6478,779.7721,0.0000453,0.99534599,0.0000,09/09.6112/2019,2000,g 12.2,2.0
# From MPC114602
P/2018 L1 (PANSTARRS),e,10.5940,268.6287,17.9611,3.650003,0.1413398,0.48298929,91.4992,08/21.0/2020,2000,g 15.0,4.0
# From MPC118841
C/2018 L2 (ATLAS),e,67.4040,243.0233,56.2633,256.8358,0.0002395,0.99333270,0.0000,12/02.6669/2018,2000,g 10.0,4.0
# From MPC114603
P/2018 L4 (PANSTARRS),e,26.6239,145.1625,140.5337,4.939273,0.0897862,0.66027566,67.4372,08/21.0/2020,2000,g 17.5,4.0
# From MPC119996
P/2018 L5 (Leonard),e,2.2084,219.1402,93.7641,3.627357,0.1426654,0.36480749,119.7010,08/21.0/2020,2000,g 14.5,4.0
# From MPC117070
C/2018 M1 (Catalina),e,37.2825,339.4242,14.1521,21.32673,0.0100073,0.93892393,7.7337,08/21.0/2020,2000,g 15.5,4.0
# From MPC112393
C/2018 N1 (NEOWISE),e,159.4455,292.4412,354.5997,340.9775,0.0001565,0.99616076,0.0000,08/01.9097/2018,2000,g 15.5,4.0
# From MPC119996
C/2018 N2 (ASASSN),h,11/10.9625/2019,77.5281,25.2520,24.3987,1.000104,3.124669,2000,6.0,4.0
# From MPC114603
C/2018 O1 (ATLAS),e,154.0416,87.6320,162.5513,27.84822,0.0067067,0.94398977,4.8319,08/21.0/2020,2000,g 17.0,4.0
# From MPC114603
P/2018 P3 (PANSTARRS),e,8.9085,59.1938,305.8654,3.006554,0.1890604,0.41630154,128.8230,08/21.0/2020,2000,g 14.5,4.0
# From MPC114603
P/2018 P4 (PANSTARRS),e,23.1065,353.0838,8.1820,6.668970,0.0572290,0.45024065,37.3294,08/21.0/2020,2000,g 12.0,4.0
# From MPC118094
C/2018 P5 (PANSTARRS),e,7.2542,216.2447,131.6918,12.78588,0.0215580,0.64205303,11.6678,08/21.0/2020,2000,g 11.0,4.0
# From MPC118841
C/2018 R3 (Lemmon),e,69.7251,324.6336,112.8527,1751,0.0000135,0.99926324,0.0000,06/07.2011/2019,2000,g  9.5,4.0
# From MPC112393
C/2018 R4 (Fuls),e,11.6838,298.4339,345.2533,324.8822,0.0001683,0.99472945,0.0000,03/03.6894/2018,2000,g 14.0,4.0
# From MPC114603
C/2018 R5 (Lemmon),e,103.7486,171.1343,178.0360,22.78941,0.0090595,0.84105552,5.3360,08/21.0/2020,2000,g 11.5,4.0
# From MPC119996
C/2018 U1 (Lemmon),h,11/02.7897/2021,108.3014,75.4772,180.4205,1.000791,4.993790,2000,5.0,4.0
# From MPC114604
C/2018 V1 (Machholz-Fujikawa-Iwamoto),h,12/03.4175/2018,144.0534,128.8777,88.8328,1.000384,0.385798,2000,12.0,4.0
# From MPC115884
C/2018 V2 (ATLAS),e,159.1541,356.9897,318.9260,25.37650,0.0077100,0.90231607,4.8821,08/21.0/2020,2000,g 15.0,4.0
# From MPC114604
P/2018 VN2 (Leonard),e,18.2474,226.5282,138.7276,4.064854,0.1202643,0.47830873,97.1147,08/21.0/2020,2000,g 15.0,4.0
# From MPC117070
A/2018 V3,e,164.9780,308.6568,3.5018,120.8193,0.0007422,0.98891133,0.0000,09/08.6774/2019,2000,g 15.7,2.0
# From MPC114604
C/2018 V4 (Africano),e,69.0032,78.3746,359.9587,208.2238,0.0003280,0.98464168,0.0000,03/01.4821/2019,2000,g 12.5,4.0
# From MPC114604
P/2018 V5 (Trujillo-Sheppard),e,10.5836,171.2936,260.7196,8.954446,0.0367829,0.47450410,25.3092,08/21.0/2020,2000,g 12.5,4.0
# From MPC115884
C/2018 W1 (Catalina),e,83.2581,233.5912,251.2548,21.75116,0.0097158,0.93744849,4.5393,08/21.0/2020,2000,g 15.7,2.0
# From MPC119996
C/2018 W2 (Africano),h,09/05.7002/2019,116.6169,181.8538,157.9751,1.000546,1.454793,2000,9.5,4.0
# From MPC119996
C/2018 X2 (Fitzsimmons),e,23.0695,340.8283,162.0598,149.8054,0.0005375,0.98580607,0.0000,07/08.5044/2019,2000,g 12.0,4.0
# From MPC114604
C/2018 X3 (PANSTARRS),e,43.3693,78.9167,359.7746,12.38553,0.0226117,0.78221223,13.5534,08/21.0/2020,2000,g 14.5,4.0
# From MPC118842
C/2018 Y1 (Iwamoto),e,160.4010,147.5066,358.0401,142.9455,0.0005767,0.99100486,0.0000,02/07.0398/2019,2000,g 11.5,4.0
# From MPC114605
P/2018 Y2 (Africano),e,11.6829,297.2677,162.3972,7.465317,0.0483205,0.47868660,28.8494,08/21.0/2020,2000,g 11.5,4.0
# From MPC114605
P/2019 A1 (PANSTARRS),e,13.7442,312.3031,150.8125,5.124644,0.0849588,0.56840832,57.7879,08/21.0/2020,2000,g 16.0,4.0
# From MPC114605
P/2019 A2 (ATLAS),e,14.8603,139.4667,324.1160,5.725070,0.0719503,0.38139126,45.9902,08/21.0/2020,2000,g 10.5,4.0
# From MPC114605
P/2019 A3 (PANSTARRS),e,15.3655,31.3102,325.4787,3.147170,0.1765321,0.26538674,132.3948,08/21.0/2020,2000,g 16.0,4.0
# From MPC114605
P/2019 A4 (PANSTARRS),e,13.3208,119.2997,341.6831,2.613339,0.2332977,0.08908809,145.9428,08/21.0/2020,2000,g 15.0,4.0
# From MPC118842
C/2019 A5 (PANSTARRS),e,67.5547,146.6239,356.0013,21.60734,0.0098130,0.70734170,4.3083,08/21.0/2020,2000,g  9.5,4.0
# From MPC114605
P/2019 A6 (Lemmon-PANSTARRS),e,33.2294,280.2732,156.2336,5.364715,0.0793203,0.63891699,57.3370,08/21.0/2020,2000,g 16.0,4.0
# From MPC114605
P/2019 A7 (PANSTARRS),e,17.7744,280.5243,119.2949,3.185953,0.1733186,0.16102214,165.8240,08/21.0/2020,2000,g 13.5,4.0
# From MPC115884
P/2019 A8 (PANSTARRS),e,3.0138,127.6163,22.1094,3.365188,0.1596578,0.44524569,113.8846,08/21.0/2020,2000,g 16.0,4.0
# From MPC118842
C/2019 A9 (PANSTARRS),e,84.2798,278.3806,237.9416,39.98192,0.0038986,0.96424609,1.5257,08/21.0/2020,2000,g 15.0,4.0
# From MPC114606
C/2019 B1 (Africano),e,123.3632,290.4368,174.8557,148.5054,0.0005446,0.98924826,0.0000,03/19.8493/2019,2000,g 16.0,4.0
# From MPC115885
P/2019 B2 (Groeller),e,16.8268,176.3992,358.9520,3.858170,0.1300565,0.37318946,57.1442,08/21.0/2020,2000,g 14.5,4.0
# From MPC115885
C/2019 B3 (PANSTARRS),h,01/19.8100/2021,66.5377,358.4250,263.8922,1.002747,6.823706,2000,5.5,4.0
# From MPEC 2020-AA5
C/2019 C1,e,36.0202,212.3924,319.1943,789.4109,0.0000444,0.99166316,0.0000,05/05.7243/2020,2000,g 10.0,4.0
# From MPC118842
C/2019 D1 (Flewelling),e,34.0894,231.7193,70.5049,140.4787,0.0005920,0.98876543,0.0000,05/11.8766/2019,2000,g 13.0,4.0
# From MPC119997
C/2019 E3 (ATLAS),h,11/12.1037/2023,84.2872,347.2338,280.5986,1.004493,10.315455,2000,2.5,4.0
# From MPC119997
C/2019 F1 (ATLAS-Africano),h,06/22.7599/2021,54.1756,38.7262,251.1109,1.003537,3.595886,2000,5.5,4.0
# From MPC119997
C/2019 F2 (ATLAS),e,19.1878,175.8109,11.0794,16.65743,0.0144975,0.86587618,5.0296,08/21.0/2020,2000,g 12.0,4.0
# From MPEC 2020-AA5
A/2019 G2,e,159.2098,208.1497,82.6458,706.2353,0.0000525,0.99675585,0.0000,12/10.0349/2019,2000,g 16.5,2.0
# From MPC118094
A/2019 G4,h,09/15.9271/2018,138.3859,130.4644,287.8844,1.001172,5.858762,2000,13.0,2.0
# From MPC114607
P/2019 GG21 (PANSTARRS),e,6.0837,340.5899,208.4224,7.469544,0.0482795,0.47297987,22.6193,08/21.0/2020,2000,g 12.0,4.0
# From MPC115885
C/2019 H1 (NEOWISE),e,104.5768,269.1889,19.3070,231.5232,0.0002798,0.99202892,0.0000,04/27.7687/2019,2000,g 15.5,4.0
# From MPC118842
C/2019 J1 (Lemmon),e,24.5505,98.0881,167.7824,69.96607,0.0016841,0.96456892,0.8417,08/21.0/2020,2000,g 12.0,4.0
# From MPC115885
C/2019 J2 (Palomar),e,105.1417,25.4737,98.7115,675.3047,0.0000562,0.99744239,0.0000,07/19.7086/2019,2000,g 13.0,4.0
# From MPC117071
